ONEWEB-0600             
1 54664U 22166Y   25075.76008037  .00000064  00000+0  12261-3 0  9996
2 54664  87.9320 335.2019 0001854  83.8679 276.2666 13.21826737111084
ONEWEB-0601             
1 54665U 22166Z   25075.97928199  .00000098  00000+0  20612-3 0  9996
2 54665  87.9339 335.1478 0001629  92.9211 267.2109 13.21826229111309
ONEWEB-0602             
1 54666U 22166AA  25075.94459270 -.00000015  00000+0 -67928-4 0  9996
2 54666  87.9341 335.1561 0001900  87.5909 272.5443 13.21827067111145
ONEWEB-0603             
1 54667U 22166AB  25075.94931956  .00000026  00000+0  31626-4 0  9999
2 54667  87.9315 335.1232 0001767  89.7322 270.4014 13.21827251111074
ONEWEB-0605             
1 54669U 22166AD  25075.70330636 -.00000015  00000+0 -67503-4 0  9996
2 54669  87.9335 335.2015 0001325 101.9549 258.1733 13.21826260111076
